{
  "norad_id": 64265,
  "name": "STARLINK-34240",
  "history": [
    {
      "epoch": "2026-03-28T06:08:50.470080Z",
      "apogee_km": 475.6404867392639,
      "perigee_km": 474.6138677655117,
      "latitude_deg": 5.640614312928987e-05,
      "longitude_deg": 112.92825153860102,
      "height_km": 475.9852015974213,
      "semi_major_axis_km": 6853.2641772523875,
      "eccentricity": 7.49e-05,
      "inclination_deg": 53.1616,
      "raan_deg": 30.8177,
      "arg_perigee_deg": 85.427,
      "mean_anomaly_deg": 274.6817,
      "mean_motion_rev_day": 15.30229437
    },
    {
      "epoch": "2026-03-29T02:31:32.110464Z",
      "apogee_km": 476.01147807519465,
      "perigee_km": 474.4365757112146,
      "latitude_deg": -2.8263569301098332e-05,
      "longitude_deg": 162.47298231399023,
      "height_km": 476.0242448302563,
      "semi_major_axis_km": 6853.361026893204,
      "eccentricity": 0.0001149,
      "inclination_deg": 53.1615,
      "raan_deg": 26.8729,
      "arg_perigee_deg": 82.8362,
      "mean_anomaly_deg": 277.2769,
      "mean_motion_rev_day": 15.30197
    },
    {
      "epoch": "2026-03-30T02:02:20.078304Z",
      "apogee_km": 476.19238773700454,
      "perigee_km": 474.3063358102445,
      "latitude_deg": 4.7370739999683684e-05,
      "longitude_deg": 164.25651529372942,
      "height_km": 476.1388691999239,
      "semi_major_axis_km": 6853.386361773624,
      "eccentricity": 0.0001376,
      "inclination_deg": 53.1621,
      "raan_deg": 22.3219,
      "arg_perigee_deg": 89.4753,
      "mean_anomaly_deg": 270.6406,
      "mean_motion_rev_day": 15.30188515
    },
    {
      "epoch": "2026-03-30T05:10:26.708160Z",
      "apogee_km": 476.119324072798,
      "perigee_km": 474.3815791505667,
      "latitude_deg": 5.201716407249385e-06,
      "longitude_deg": 116.49320256905224,
      "height_km": 476.120764853257,
      "semi_major_axis_km": 6853.387451611682,
      "eccentricity": 0.00012678,
      "inclination_deg": 53.1618,
      "raan_deg": 21.715,
      "arg_perigee_deg": 88.1563,
      "mean_anomaly_deg": 271.9583,
      "mean_motion_rev_day": 15.3018815
    }
  ]
}